[{"OBJECT_NAME":"JILIN-1 GAOFEN 03D47","OBJECT_ID":"2022-167L","EPOCH":"2026-03-09T22:56:46.924224","MEAN_MOTION":15.31686941,"ECCENTRICITY":0.00089304,"INCLINATION":97.6835,"RA_OF_ASC_NODE":234.6581,"ARG_OF_PERICENTER":110.4031,"MEAN_ANOMALY":249.8169,"EPHEMERIS_TYPE":0,"CLASSIFICATION_TYPE":"U","NORAD_CAT_ID":54692,"ELEMENT_SET_NO":999,"REV_AT_EPOCH":18014,"BSTAR":0.00047294748,"MEAN_MOTION_DOT":0.00014417,"MEAN_MOTION_DDOT":0},{"OBJECT_NAME":"STARLINK-34131","OBJECT_ID":"2025-113N","EPOCH":"2026-03-09T08:24:48.636288","MEAN_MOTION":15.3019975,"ECCENTRICITY":0.00011013,"INCLINATION":53.1583,"RA_OF_ASC_NODE":92.67,"ARG_OF_PERICENTER":81.19,"MEAN_ANOMALY":278.9225,"EPHEMERIS_TYPE":0,"CLASSIFICATION_TYPE":"U","NORAD_CAT_ID":64182,"ELEMENT_SET_NO":999,"REV_AT_EPOCH":4497,"BSTAR":0.0011389515,"MEAN_MOTION_DOT":0.00033525,"MEAN_MOTION_DDOT":0}]
